[{"OBJECT_NAME":"SMDC ONE 1.2","OBJECT_ID":"2012-048B","EPOCH":"2026-03-09T14:14:46.220928","MEAN_MOTION":15.19069434,"ECCENTRICITY":0.0110458,"INCLINATION":64.6579,"RA_OF_ASC_NODE":143.2061,"ARG_OF_PERICENTER":207.1808,"MEAN_ANOMALY":152.3511,"EPHEMERIS_TYPE":0,"CLASSIFICATION_TYPE":"U","NORAD_CAT_ID":38759,"ELEMENT_SET_NO":999,"REV_AT_EPOCH":10101,"BSTAR":0.00057078,"MEAN_MOTION_DOT":0.00013943,"MEAN_MOTION_DDOT":0},{"OBJECT_NAME":"TIANMU-1 17","OBJECT_ID":"2024-004C","EPOCH":"2026-03-09T22:46:08.436864","MEAN_MOTION":15.2591023,"ECCENTRICITY":0.00044458,"INCLINATION":97.4649,"RA_OF_ASC_NODE":254.963,"ARG_OF_PERICENTER":359.1343,"MEAN_ANOMALY":0.9887,"EPHEMERIS_TYPE":0,"CLASSIFICATION_TYPE":"U","NORAD_CAT_ID":58702,"ELEMENT_SET_NO":999,"REV_AT_EPOCH":12063,"BSTAR":0.00031387278,"MEAN_MOTION_DOT":7.979e-5,"MEAN_MOTION_DDOT":0}]
